[{"OBJECT_NAME":"OBJECT B","OBJECT_ID":"2025-274B","EPOCH":"2026-03-09T17:22:54.825024","MEAN_MOTION":14.92604325,"ECCENTRICITY":0.00115111,"INCLINATION":97.7427,"RA_OF_ASC_NODE":359.4041,"ARG_OF_PERICENTER":330.3521,"MEAN_ANOMALY":29.7045,"EPHEMERIS_TYPE":0,"CLASSIFICATION_TYPE":"U","NORAD_CAT_ID":66651,"ELEMENT_SET_NO":999,"REV_AT_EPOCH":1537,"BSTAR":0.00043239201,"MEAN_MOTION_DOT":4.4e-5,"MEAN_MOTION_DDOT":0},{"OBJECT_NAME":"DMSP 5D-2 F11 DEB","OBJECT_ID":"1991-082BR","EPOCH":"2026-03-09T06:25:10.525152","MEAN_MOTION":14.89323178,"ECCENTRICITY":0.00049916,"INCLINATION":98.585,"RA_OF_ASC_NODE":187.9802,"ARG_OF_PERICENTER":306.2334,"MEAN_ANOMALY":53.8419,"EPHEMERIS_TYPE":0,"CLASSIFICATION_TYPE":"U","NORAD_CAT_ID":29070,"ELEMENT_SET_NO":999,"REV_AT_EPOCH":11806,"BSTAR":0.0043957642,"MEAN_MOTION_DOT":0.00041868,"MEAN_MOTION_DDOT":0}]
